{
    "type": "FeatureCollection",
    "features": [
        {
            "type": "Feature",
            "properties": {
                "name": "elmore_corn_1",
                "crop": "corn",
                "county": "Elmore",
                "year": 2025
            },
            "geometry": {
                "type": "Polygon",
                "coordinates": [
                    [
                        [
                            -85.916789,
                            32.477734
                        ],
                        [
                            -85.916731,
                            32.47389
                        ],
                        [
                            -85.916387,
                            32.471838
                        ],
                        [
                            -85.915162,
                            32.470046
                        ],
                        [
                            -85.913066,
                            32.468899
                        ],
                        [
                            -85.910287,
                            32.469178
                        ],
                        [
                            -85.905359,
                            32.469303
                        ],
                        [
                            -85.906765,
                            32.47598
                        ],
                        [
                            -85.909867,
                            32.477805
                        ],
                        [
                            -85.916789,
                            32.477734
                        ]
                    ]
                ]
            }
        }
    ]
}