{
    "type": "FeatureCollection",
    "features": [
        {
            "type": "Feature",
            "properties": {
                "name": "escambia_cotton_1",
                "crop": "cotton",
                "county": "Escambia",
                "year": 2025
            },
            "geometry": {
                "type": "Polygon",
                "coordinates": [
                    [
                        [
                            -87.497463,
                            31.289154
                        ],
                        [
                            -87.497355,
                            31.28082
                        ],
                        [
                            -87.49611,
                            31.281086
                        ],
                        [
                            -87.495992,
                            31.281875
                        ],
                        [
                            -87.494835,
                            31.281975
                        ],
                        [
                            -87.494556,
                            31.2816
                        ],
                        [
                            -87.493985,
                            31.281737
                        ],
                        [
                            -87.491714,
                            31.28319
                        ],
                        [
                            -87.492015,
                            31.285098
                        ],
                        [
                            -87.492184,
                            31.287495
                        ],
                        [
                            -87.493768,
                            31.288716
                        ],
                        [
                            -87.494334,
                            31.289212
                        ],
                        [
                            -87.495575,
                            31.2892
                        ],
                        [
                            -87.497463,
                            31.289154
                        ]
                    ]
                ]
            }
        }
    ]
}