{
    "type": "FeatureCollection",
    "features": [
        {
            "type": "Feature",
            "properties": {
                "name": "field_1_corn",
                "crop": "corn",
                "county": "Lawrence",
                "year": 2025
            },
            "geometry": {
                "type": "Polygon",
                "coordinates": [
                    [
                        [
                            -87.536563,
                            34.797097
                        ],
                        [
                            -87.536563,
                            34.793464
                        ],
                        [
                            -87.532774,
                            34.793464
                        ],
                        [
                            -87.532808,
                            34.795203
                        ],
                        [
                            -87.532284,
                            34.795129
                        ],
                        [
                            -87.532117,
                            34.7935
                        ],
                        [
                            -87.53176,
                            34.793436
                        ],
                        [
                            -87.531549,
                            34.794791
                        ],
                        [
                            -87.531615,
                            34.795386
                        ],
                        [
                            -87.530757,
                            34.797005
                        ],
                        [
                            -87.536563,
                            34.797097
                        ]
                    ]
                ]
            }
        }
    ]
}