{
    "type": "FeatureCollection",
    "features": [
        {
            "type": "Feature",
            "properties": {
                "name": "limestone_cotton_1",
                "crop": "cotton",
                "county": "Limestone",
                "year": 2025
            },
            "geometry": {
                "type": "Polygon",
                "coordinates": [
                    [
                        [
                            -87.084877,
                            34.722026
                        ],
                        [
                            -87.085738,
                            34.720266
                        ],
                        [
                            -87.085649,
                            34.716747
                        ],
                        [
                            -87.085671,
                            34.713898
                        ],
                        [
                            -87.084877,
                            34.71134
                        ],
                        [
                            -87.076512,
                            34.71134
                        ],
                        [
                            -87.073072,
                            34.711337
                        ],
                        [
                            -87.072858,
                            34.713098
                        ],
                        [
                            -87.074972,
                            34.713727
                        ],
                        [
                            -87.076635,
                            34.716835
                        ],
                        [
                            -87.074788,
                            34.718615
                        ],
                        [
                            -87.076512,
                            34.722026
                        ],
                        [
                            -87.084877,
                            34.722026
                        ]
                    ]
                ]
            }
        }
    ]
}